NORAD_CAT_ID,OBJECT_NAME,OBJECT_TYPE,EPOCH,MEAN_MOTION,ECCENTRICITY,INCLINATION,RA_OF_ASC_NODE,ARG_OF_PERICENTER,MEAN_ANOMALY,BSTAR,MEAN_MOTION_DOT,MEAN_MOTION_DDOT,TLE_LINE0,TLE_LINE1,TLE_LINE2,SEMIMAJOR_AXIS,PERIOD,APOGEE,PERIGEE,DECAYED
56455.0,STARLINK-5987,PAYLOAD,2024-07-18 18:21:11,14.98341543,0.0003706,69.9988,214.5237,270.6748,89.3986,5.792e-05,5.98e-06,0.0,0 STARLINK-5987,1 56455U 23064H   24200.76471619  .00000598  00000-0  57920-4 0  9998,2 56455  69.9988 214.5237 0003706 270.6748  89.3986 14.98341543 65534,6950.157,96.106,574.598,569.446,0.0
56455.0,STARLINK-5987,PAYLOAD,2024-07-19 05:34:08,14.98337893,0.0003644,69.9991,213.3459,270.5863,89.4879,-3.6916e-05,-5.34e-06,0.0,0 STARLINK-5987,1 56455U 23064H   24201.23203760 -.00000534  00000-0 -36916-4 0  9995,2 56455  69.9991 213.3459 0003644 270.5863  89.4879 14.98337893 65961,6950.168,96.106,574.566,569.501,0.0
56455.0,STARLINK-5987,PAYLOAD,2024-07-19 10:22:32,14.9833804,0.000365,69.9991,212.8409,270.6699,89.4042,-3.8134e-05,-5.48e-06,0.0,0 STARLINK-5987,1 56455U 23064H   24201.43231611 -.00000548  00000-0 -38134-4 0  9992,2 56455  69.9991 212.8409 0003650 270.6699  89.4042 14.98338040 65636,6950.168,96.106,574.57,569.496,0.0
56455.0,STARLINK-5987,PAYLOAD,2024-07-19 18:23:12,14.98336393,0.0003711,69.9989,211.9988,270.9077,89.1657,-3.7159e-05,-5.37e-06,0.0,0 STARLINK-5987,1 56455U 23064H   24201.76611462 -.00000537  00000-0 -37159-4 0  9998,2 56455  69.9989 211.9988 0003711 270.9077  89.1657 14.98336393 65689,6950.173,96.107,574.617,569.459,0.0
56455.0,STARLINK-5987,PAYLOAD,2024-07-20 05:36:08,14.98333679,0.0003704,69.999,210.8209,270.7119,89.3616,-3.8724e-05,-5.55e-06,0.0,0 STARLINK-5987,1 56455U 23064H   24202.23343476 -.00000555  00000-0 -38724-4 0  9997,2 56455  69.9990 210.8209 0003704 270.7119  89.3616 14.98333679 66112,6950.182,96.107,574.621,569.472,0.0
56455.0,STARLINK-5987,PAYLOAD,2024-07-20 10:24:32,14.98334831,0.0003704,69.9989,210.3155,270.178,89.8955,-2.6876e-05,-4.14e-06,0.0,0 STARLINK-5987,1 56455U 23064H   24202.43371290 -.00000414  00000-0 -26876-4 0  9993,2 56455  69.9989 210.3155 0003704 270.1780  89.8955 14.98334831 65787,6950.178,96.107,574.617,569.469,0.0
56455.0,STARLINK-5987,PAYLOAD,2024-07-20 18:25:13,14.98333375,0.0003671,69.9991,209.4735,270.1206,89.9532,-1.7176e-05,-2.98e-06,0.0,0 STARLINK-5987,1 56455U 23064H   24202.76751309 -.00000298  00000-0 -17176-4 0  9995,2 56455  69.9991 209.4735 0003671 270.1206  89.9532 14.98333375 65839,6950.182,96.107,574.599,569.496,0.0
56455.0,STARLINK-5987,PAYLOAD,2024-07-21 05:38:09,14.98331104,0.0003679,69.9991,208.2952,269.7012,90.3725,4.5218e-05,4.46e-06,0.0,0 STARLINK-5987,1 56455U 23064H   24203.23483244  .00000446  00000-0  45218-4 0  9999,2 56455  69.9991 208.2952 0003679 269.7012  90.3725 14.98331104 66260,6950.189,96.107,574.611,569.498,0.0
56455.0,STARLINK-5987,PAYLOAD,2024-07-21 10:26:33,14.98331882,0.0003684,69.9992,207.7904,269.8294,90.2443,4.3251e-05,4.23e-06,0.0,0 STARLINK-5987,1 56455U 23064H   24203.43511193  .00000423  00000-0  43251-4 0  9996,2 56455  69.9992 207.7904 0003684 269.8294  90.2443 14.98331882 65933,6950.187,96.107,574.613,569.492,0.0
56455.0,STARLINK-5987,PAYLOAD,2024-07-22 10:28:34,14.98332219,0.000367,69.9994,205.2656,269.8925,90.1813,4.7268e-05,4.71e-06,0.0,0 STARLINK-5987,1 56455U 23064H   24204.43651130  .00000471  00000-0  47268-4 0  9998,2 56455  69.9994 205.2656 0003670 269.8925  90.1813 14.98332219 66440,6950.186,96.107,574.602,569.5,0.0
56455.0,STARLINK-5987,PAYLOAD,2024-07-22 23:17:39,14.98331297,0.0003627,69.9996,203.9191,270.3533,89.721,4.3074e-05,4.21e-06,0.0,0 STARLINK-5987,1 56455U 23064H   24204.97059188  .00000421  00000-0  43074-4 0  9998,2 56455  69.9996 203.9191 0003627 270.3533  89.7210 14.98331297 66164,6950.189,96.107,574.575,569.533,0.0
56455.0,STARLINK-5987,PAYLOAD,2024-07-23 08:54:27,14.98333268,0.0003615,69.9996,202.9092,270.4568,89.6177,6.2497e-05,6.53e-06,0.0,0 STARLINK-5987,1 56455U 23064H   24205.37114989  .00000653  00000-0  62497-4 0  9991,2 56455  69.9996 202.9092 0003615 270.4568  89.6177 14.98333268 66227,6950.183,96.107,574.56,569.535,0.0
56455.0,STARLINK-5987,PAYLOAD,2024-07-24 04:08:04,14.98329348,0.000352,69.9998,200.8898,267.4672,92.6084,2.5883e-05,2.16e-06,0.0,0 STARLINK-5987,1 56455U 23064H   24206.17227247  .00000216  00000-0  25883-4 0  9995,2 56455  69.9998 200.8898 0003520 267.4672  92.6084 14.98329348 66705,6950.195,96.107,574.506,569.613,0.0
56455.0,STARLINK-5987,PAYLOAD,2024-07-24 10:32:36,14.98329082,0.0003524,69.9998,200.2165,267.2359,92.8397,2.0393e-05,1.5e-06,0.0,0 STARLINK-5987,1 56455U 23064H   24206.43931291  .00000150  00000-0  20393-4 0  9993,2 56455  69.9998 200.2165 0003524 267.2359  92.8397 14.98329082 66388,6950.196,96.107,574.51,569.611,0.0
56455.0,STARLINK-5987,PAYLOAD,2024-07-25 04:10:05,14.98331953,0.0003577,69.9996,198.3649,267.3856,92.6893,2.1418e-05,1.62e-06,0.0,0 STARLINK-5987,1 56455U 23064H   24207.17367062  .00000162  00000-0  21418-4 0  9996,2 56455  69.9996 198.3649 0003577 267.3856  92.6893 14.98331953 66852,6950.187,96.107,574.538,569.566,0.0
56455.0,STARLINK-5987,PAYLOAD,2024-07-25 05:46:13,14.98331874,0.0003578,69.9996,198.1966,267.3747,92.7003,2.0519e-05,1.52e-06,0.0,0 STARLINK-5987,1 56455U 23064H   24207.24043064  .00000152  00000-0  20519-4 0  9997,2 56455  69.9996 198.1966 0003578 267.3747  92.7003 14.98331874 66500,6950.187,96.107,574.539,569.565,0.0
56455.0,STARLINK-5987,PAYLOAD,2024-07-25 08:58:29,14.98332887,0.0003566,69.9997,197.8599,267.1851,92.89,3.164e-05,2.84e-06,0.0,0 STARLINK-5987,1 56455U 23064H   24207.37394952  .00000284  00000-0  31640-4 0  9999,2 56455  69.9997 197.8599 0003566 267.1851  92.8900 14.98332887 66524,6950.184,96.107,574.527,569.571,0.0
56455.0,STARLINK-5987,PAYLOAD,2024-07-26 04:12:06,14.98330061,0.0003585,69.9996,195.8403,266.777,93.2979,4.5804e-05,4.53e-06,0.0,0 STARLINK-5987,1 56455U 23064H   24208.17506980  .00000453  00000-0  45804-4 0  9999,2 56455  69.9996 195.8403 0003585 266.7770  93.2979 14.98330061 67008,6950.193,96.107,574.549,569.566,0.0
56455.0,STARLINK-5987,PAYLOAD,2024-07-26 09:00:29,14.98333223,0.0003578,69.9995,195.335,267.6519,92.4231,7.7062e-05,8.27e-06,0.0,0 STARLINK-5987,1 56455U 23064H   24208.37534683  .00000827  00000-0  77062-4 0  9998,2 56455  69.9995 195.3350 0003578 267.6519  92.4231 14.98333223 66673,6950.183,96.107,574.535,569.561,0.0
56455.0,STARLINK-5987,PAYLOAD,2024-07-26 21:49:34,14.98332389,0.0003511,69.9996,193.9883,267.7393,92.3364,3.1223e-05,2.8e-06,0.0,0 STARLINK-5987,1 56455U 23064H   24208.90942784  .00000280  00000-0  31223-4 0  9994,2 56455  69.9996 193.9883 0003511 267.7393  92.3364 14.98332389 66754,6950.186,96.107,574.491,569.61,0.0
56455.0,STARLINK-5987,PAYLOAD,2024-07-27 04:14:06,14.98330912,0.0003494,69.9998,193.3149,267.5508,92.5251,2.4948e-05,2.05e-06,0.0,0 STARLINK-5987,1 56455U 23064H   24209.17646867  .00000205  00000-0  24948-4 0  9990,2 56455  69.9998 193.3149 0003494 267.5508  92.5251 14.98330912 67153,6950.19,96.107,574.483,569.627,0.0
56455.0,STARLINK-5987,PAYLOAD,2024-07-27 05:50:14,14.98331184,0.000349,69.9998,193.1466,267.5342,92.5417,2.7978e-05,2.41e-06,0.0,0 STARLINK-5987,1 56455U 23064H   24209.24322836  .00000241  00000-0  27978-4 0  9991,2 56455  69.9998 193.1466 0003490 267.5342  92.5417 14.98331184 66802,6950.189,96.107,574.48,569.629,0.0
56455.0,STARLINK-5987,PAYLOAD,2024-07-27 09:02:30,14.98332622,0.0003486,69.9998,192.81,267.5858,92.4902,4.2353e-05,4.12e-06,0.0,0 STARLINK-5987,1 56455U 23064H   24209.37674684  .00000412  00000-0  42353-4 0  9990,2 56455  69.9998 192.8100 0003486 267.5858  92.4902 14.98332622 66828,6950.185,96.107,574.473,569.627,0.0
56455.0,STARLINK-5987,PAYLOAD,2024-07-28 05:52:15,14.98331421,0.0003467,69.9998,190.6221,267.7992,92.277,1.3869e-05,7.2e-07,0.0,0 STARLINK-5987,1 56455U 23064H   24210.24462787  .00000072  00000-0  13869-4 0  9999,2 56455  69.9998 190.6221 0003467 267.7992  92.2770 14.98331421 67310,6950.188,96.107,574.463,569.644,0.0
56455.0,STARLINK-5987,PAYLOAD,2024-07-28 09:04:32,14.98329839,0.000347,70.0,190.2858,266.853,93.2232,1.6755e-05,1.07e-06,0.0,0 STARLINK-5987,1 56455U 23064H   24210.37814886  .00000107  00000-0  16755-4 0  9990,2 56455  70.0000 190.2858 0003470 266.8530  93.2232 14.98329839 66976,6950.193,96.107,574.47,569.647,0.0
56455.0,STARLINK-5987,PAYLOAD,2024-07-29 09:06:32,14.98328646,0.0003505,70.0002,187.7612,267.3836,92.6922,9.3659e-05,1.025e-05,0.0,0 STARLINK-5987,1 56455U 23064H   24211.37954845  .00001025  00000-0  93659-4 0  9999,2 56455  70.0002 187.7612 0003505 267.3836  92.6922 14.98328646 67482,6950.197,96.107,574.498,569.626,0.0
56455.0,STARLINK-5987,PAYLOAD,2024-07-29 15:31:05,14.98330786,0.0003388,70.0003,187.088,270.5509,89.5262,1.7726e-05,1.18e-06,0.0,0 STARLINK-5987,1 56455U 23064H   24211.64658902  .00000118  00000-0  17726-4 0  9997,2 56455  70.0003 187.0880 0003388 270.5509  89.5262 14.98330786 67160,6950.19,96.107,574.41,569.701,0.0
56455.0,STARLINK-5987,PAYLOAD,2024-07-30 07:32:25,14.98331994,0.0003357,70.0004,185.4051,269.689,90.3884,7.5509e-05,8.08e-06,0.0,0 STARLINK-5987,1 56455U 23064H   24212.31418679  .00000808  00000-0  75509-4 0  9996,2 56455  70.0004 185.4051 0003357 269.6890  90.3884 14.98331994 67264,6950.187,96.107,574.385,569.719,0.0
56455.0,STARLINK-5987,PAYLOAD,2024-07-30 15:33:05,14.98333343,0.0003376,70.0004,184.5635,270.4028,89.6744,7.2639e-05,7.74e-06,0.0,0 STARLINK-5987,1 56455U 23064H   24212.64798563  .00000774  00000-0  72639-4 0  9998,2 56455  70.0004 184.5635 0003376 270.4028  89.6744 14.98333343 67677,6950.183,96.107,574.394,569.701,0.0
56455.0,STARLINK-5987,PAYLOAD,2024-07-31 07:34:26,14.983364,0.0003341,70.0003,182.8804,270.1684,89.9092,8.5248e-05,9.24e-06,0.0,0 STARLINK-5987,1 56455U 23064H   24213.31558237  .00000924  00000-0  85248-4 0  9992,2 56455  70.0003 182.8804 0003341 270.1684  89.9092 14.98336400 67410,6950.173,96.107,574.36,569.716,0.0
